{"fetched_at": "2026-05-06T14:56:24.484888+00:00", "line1": "1 44349U 19036L   26125.90411080  .00002962  00000+0  22953-3 0  9994", "line2": "2 44349  23.9988 317.4139 0000968  56.4349 303.6244 14.96333013378314"}
{"fetched_at": "2026-05-08T01:13:34.325980+00:00", "line1": "1 44349U 19036L   26127.70460729  .00002544  00000+0  19338-3 0  9997", "line2": "2 44349  23.9985 305.2787 0001069  66.7311 293.3302 14.96340646378580"}
{"fetched_at": "2026-05-20T19:18:52.826876+00:00", "line1": "1 44349U 19036L   26139.90778370  .00001644  00000+0  11563-3 0  9998", "line2": "2 44349  23.9972 223.0283 0000655 177.0265 183.0240 14.96375665380418"}
{"fetched_at": "2026-05-22T01:06:16.942132+00:00", "line1": "1 44349U 19036L   26140.90803172  .00001608  00000+0  11255-3 0  9997", "line2": "2 44349  23.9970 216.2862 0000588 189.4541 170.5949 14.96378290380562"}
{"fetched_at": "2026-05-25T17:27:17.832535+00:00", "line1": "1 44349U 19036L   26145.17573258  .00002072  00000+0  15253-3 0  9998", "line2": "2 44349  23.9963 187.5188 0000397 259.9750 100.0706 14.96393556381201"}
{"fetched_at": "2026-06-01T18:53:17.825824+00:00", "line1": "1 44349U 19036L   26152.17731191  .00002942  00000+0  22723-3 0  9994", "line2": "2 44349  23.9967 140.3202 0000756  19.9166 340.1364 14.96430895382254"}
{"fetched_at": "2026-06-02T12:53:48.738811+00:00", "line1": "1 44349U 19036L   26152.24399269  .00002945  00000+0  22747-3 0  9997", "line2": "2 44349  23.9966 139.8706 0000767  22.0039 338.0495 14.96431318382264"}
